[{"OBJECT_NAME":"STARLINK-32406","OBJECT_ID":"2024-184P","EPOCH":"2026-03-09T05:14:52.855584","MEAN_MOTION":15.3019186,"ECCENTRICITY":0.00010421,"INCLINATION":53.1609,"RA_OF_ASC_NODE":16.2206,"ARG_OF_PERICENTER":108.6313,"MEAN_ANOMALY":251.4801,"EPHEMERIS_TYPE":0,"CLASSIFICATION_TYPE":"U","NORAD_CAT_ID":61545,"ELEMENT_SET_NO":999,"REV_AT_EPOCH":7843,"BSTAR":-1.1875451e-5,"MEAN_MOTION_DOT":-7.11e-6,"MEAN_MOTION_DDOT":0},{"OBJECT_NAME":"ELECTRON KICK STAGE R\/B","OBJECT_ID":"2022-147B","EPOCH":"2026-03-09T22:28:20.187264","MEAN_MOTION":15.28920172,"ECCENTRICITY":0.00095089,"INCLINATION":97.642,"RA_OF_ASC_NODE":85.1135,"ARG_OF_PERICENTER":110.4683,"MEAN_ANOMALY":249.7578,"EPHEMERIS_TYPE":0,"CLASSIFICATION_TYPE":"U","NORAD_CAT_ID":54228,"ELEMENT_SET_NO":999,"REV_AT_EPOCH":18390,"BSTAR":0.00083201931,"MEAN_MOTION_DOT":0.00023374,"MEAN_MOTION_DDOT":0}]
